start=new Date('2022-10-16T00:00:00.000Z').valueOf();
sats=[{"OBJECT_TYPE":"PAYLOAD","LAUNCH_DATE":"2021-05-26","CENTER_NAME":"EARTH","RCS_SIZE":"LARGE","TLE_LINE2":"2 48671  53.0545 283.6591 0001849  54.3174 305.7986 15.06400930 76762","REF_FRAME":"TEME","DECAY_DATE":null,"REV_AT_EPOCH":"7676","TLE_LINE1":"1 48671U 21044AK  22288.47364098  .00000187  00000-0  31477-4 0  9992","OBJECT_NAME":"STARLINK-2745","TIME_SYSTEM":"UTC","PERIAPSIS":"545.930","COUNTRY_CODE":"US","MEAN_MOTION_DDOT":"0.0000000000000","BSTAR":"0.00003147700000","NORAD_CAT_ID":"48671","OBJECT_ID":"2021-044AK","ELEMENT_SET_NO":"999","INCLINATION":"53.0545","MEAN_ELEMENT_THEORY":"SGP4","GP_ID":"215204960","MEAN_MOTION":"15.06400930","SITE":"AFETR","ARG_OF_PERICENTER":"54.3174","MEAN_MOTION_DOT":"0.00000187","EPOCH":"2022-10-15T11:22:02.580672","ECCENTRICITY":"0.00018490","PERIOD":"95.592","CLASSIFICATION_TYPE":"U","APOAPSIS":"548.491","SEMIMAJOR_AXIS":"6925.346","EPHEMERIS_TYPE":"0","MEAN_ANOMALY":"305.7986","RA_OF_ASC_NODE":"283.6591","FILE":"3614916"},{"EPOCH":"2022-10-15T11:16:44.559552","SITE":"AFETR","ARG_OF_PERICENTER":"51.9202","MEAN_MOTION_DOT":"0.00001243","SEMIMAJOR_AXIS":"6925.346","EPHEMERIS_TYPE":"0","FILE":"3615100","MEAN_ANOMALY":"308.1953","RA_OF_ASC_NODE":"283.6828","APOAPSIS":"548.490","PERIOD":"95.592","ECCENTRICITY":"0.00018460","CLASSIFICATION_TYPE":"U","TLE_LINE1":"1 48672U 21044AL  22288.46996018  .00001243  00000-0  10233-3 0  9995","OBJECT_NAME":"STARLINK-2705","TLE_LINE2":"2 48672  53.0522 283.6828 0001846  51.9202 308.1953 15.06400683 77669","REF_FRAME":"TEME","REV_AT_EPOCH":"7766","DECAY_DATE":null,"COUNTRY_CODE":"US","TIME_SYSTEM":"UTC","PERIAPSIS":"545.933","LAUNCH_DATE":"2021-05-26","OBJECT_TYPE":"PAYLOAD","RCS_SIZE":"LARGE","CENTER_NAME":"EARTH","MEAN_ELEMENT_THEORY":"SGP4","INCLINATION":"53.0522","GP_ID":"215213444","MEAN_MOTION":"15.06400683","BSTAR":"0.00010233000000","MEAN_MOTION_DDOT":"0.0000000000000","NORAD_CAT_ID":"48672","ELEMENT_SET_NO":"999","OBJECT_ID":"2021-044AL"},{"OBJECT_ID":"2021-044AM","ELEMENT_SET_NO":"999","BSTAR":"0.00011506000000","MEAN_MOTION_DDOT":"0.0000000000000","NORAD_CAT_ID":"48673","GP_ID":"215206445","MEAN_MOTION":"15.06410884","INCLINATION":"53.0524","MEAN_ELEMENT_THEORY":"SGP4","RCS_SIZE":"LARGE","CENTER_NAME":"EARTH","OBJECT_TYPE":"PAYLOAD","LAUNCH_DATE":"2021-05-26","TIME_SYSTEM":"UTC","PERIAPSIS":"545.887","COUNTRY_CODE":"US","TLE_LINE2":"2 48673  53.0524 284.5926 0001867  58.8870 301.2302 15.06410884 76734","REF_FRAME":"TEME","DECAY_DATE":null,"REV_AT_EPOCH":"7673","OBJECT_NAME":"STARLINK-2711","TLE_LINE1":"1 48673U 21044AM  22288.26722436  .00001433  00000-0  11506-3 0  9990","PERIOD":"95.591","CLASSIFICATION_TYPE":"U","ECCENTRICITY":"0.00018670","APOAPSIS":"548.473","MEAN_ANOMALY":"301.2302","RA_OF_ASC_NODE":"284.5926","FILE":"3614916","SEMIMAJOR_AXIS":"6925.315","EPHEMERIS_TYPE":"0","ARG_OF_PERICENTER":"58.8870","MEAN_MOTION_DOT":"0.00001433","SITE":"AFETR","EPOCH":"2022-10-15T06:24:48.184704"},{"EPOCH":"2022-10-15T11:04:46.084800","MEAN_MOTION_DOT":"0.00013017","ARG_OF_PERICENTER":"45.5741","SITE":"AFETR","FILE":"3614916","RA_OF_ASC_NODE":"283.7068","MEAN_ANOMALY":"314.5416","EPHEMERIS_TYPE":"0","SEMIMAJOR_AXIS":"6925.306","APOAPSIS":"548.601","PERIOD":"95.591","CLASSIFICATION_TYPE":"U","ECCENTRICITY":"0.00020650","COUNTRY_CODE":"US","TIME_SYSTEM":"UTC","PERIAPSIS":"545.741","OBJECT_NAME":"STARLINK-2712","TLE_LINE1":"1 48674U 21044AN  22288.46164450  .00013017  00000-0  89079-3 0  9990","DECAY_DATE":null,"REV_AT_EPOCH":"7676","REF_FRAME":"TEME","TLE_LINE2":"2 48674  53.0540 283.7068 0002065  45.5741 314.5416 15.06413869 76764","RCS_SIZE":"LARGE","CENTER_NAME":"EARTH","LAUNCH_DATE":"2021-05-26","OBJECT_TYPE":"PAYLOAD","MEAN_MOTION":"15.06413869","GP_ID":"215205210","MEAN_ELEMENT_THEORY":"SGP4","INCLINATION":"53.0540","ELEMENT_SET_NO":"999","OBJECT_ID":"2021-044AN","NORAD_CAT_ID":"48674","MEAN_MOTION_DDOT":"0.0000000000000","BSTAR":"0.00089079000000"},{"MEAN_ANOMALY":"313.1284","RA_OF_ASC_NODE":"283.7325","FILE":"3614916","SEMIMAJOR_AXIS":"6925.325","EPHEMERIS_TYPE":"0","PERIOD":"95.592","CLASSIFICATION_TYPE":"U","ECCENTRICITY":"0.00017570","APOAPSIS":"548.407","EPOCH":"2022-10-15T11:00:48.545280","ARG_OF_PERICENTER":"46.9851","MEAN_MOTION_DOT":"-0.00000261","SITE":"AFETR","GP_ID":"215205460","MEAN_MOTION":"15.06407723","INCLINATION":"53.0532","MEAN_ELEMENT_THEORY":"SGP4","OBJECT_ID":"2021-044AP","ELEMENT_SET_NO":"999","BSTAR":"0.00000139860000","MEAN_MOTION_DDOT":"0.0000000000000","NORAD_CAT_ID":"48675","TIME_SYSTEM":"UTC","PERIAPSIS":"545.973","COUNTRY_CODE":"US","TLE_LINE2":"2 48675  53.0532 283.7325 0001757  46.9851 313.1284 15.06407723 76766","REF_FRAME":"TEME","REV_AT_EPOCH":"7676","DECAY_DATE":null,"OBJECT_NAME":"STARLINK-2737","TLE_LINE1":"1 48675U 21044AP  22288.45889520 -.00000261  00000-0  13986-5 0  9996","RCS_SIZE":"MEDIUM","CENTER_NAME":"EARTH","OBJECT_TYPE":"PAYLOAD","LAUNCH_DATE":"2021-05-26"},{"PERIOD":"95.592","ECCENTRICITY":"0.00016580","CLASSIFICATION_TYPE":"U","APOAPSIS":"548.349","EPHEMERIS_TYPE":"0","SEMIMAJOR_AXIS":"6925.336","RA_OF_ASC_NODE":"283.7389","MEAN_ANOMALY":"304.0367","FILE":"3614916","SITE":"AFETR","MEAN_MOTION_DOT":"0.00002803","ARG_OF_PERICENTER":"56.0780","EPOCH":"2022-10-15T10:55:30.487008","NORAD_CAT_ID":"48676","MEAN_MOTION_DDOT":"0.0000000000000","BSTAR":"0.00020699000000","OBJECT_ID":"2021-044AQ","ELEMENT_SET_NO":"999","INCLINATION":"53.0540","MEAN_ELEMENT_THEORY":"SGP4","MEAN_MOTION":"15.06404021","GP_ID":"215206210","OBJECT_TYPE":"PAYLOAD","LAUNCH_DATE":"2021-05-26","RCS_SIZE":"LARGE","CENTER_NAME":"EARTH","REV_AT_EPOCH":"7676","DECAY_DATE":null,"TLE_LINE2":"2 48676  53.0540 283.7389 0001658  56.0780 304.0367 15.06404021 76768","REF_FRAME":"TEME","TLE_LINE1":"1 48676U 21044AQ  22288.45521397  .00002803  00000-0  20699-3 0  9992","OBJECT_NAME":"STARLINK-2746","TIME_SYSTEM":"UTC","PERIAPSIS":"546.053","COUNTRY_CODE":"US"},{"ARG_OF_PERICENTER":"51.5850","MEAN_MOTION_DOT":"0.00002544","SITE":"AFETR","EPOCH":"2022-10-15T17:10:59.785536","CLASSIFICATION_TYPE":"U","PERIOD":"95.592","ECCENTRICITY":"0.00019880","APOAPSIS":"548.583","MEAN_ANOMALY":"308.5318","RA_OF_ASC_NODE":"282.5646","FILE":"3615679","SEMIMAJOR_AXIS":"6925.342","EPHEMERIS_TYPE":"0","CENTER_NAME":"EARTH","RCS_SIZE":"LARGE","OBJECT_TYPE":"PAYLOAD","LAUNCH_DATE":"2021-05-26","PERIAPSIS":"545.830","TIME_SYSTEM":"UTC","COUNTRY_CODE":"US","REF_FRAME":"TEME","TLE_LINE2":"2 48677  53.0547 282.5646 0001988  51.5850 308.5318 15.06402278 76805","REV_AT_EPOCH":"7680","DECAY_DATE":null,"OBJECT_NAME":"STARLINK-2719","TLE_LINE1":"1 48677U 21044AR  22288.71596974  .00002544  00000-0  18960-3 0  9995","OBJECT_ID":"2021-044AR","ELEMENT_SET_NO":"999","BSTAR":"0.00018960000000","MEAN_MOTION_DDOT":"0.0000000000000","NORAD_CAT_ID":"48677","GP_ID":"215247395","MEAN_MOTION":"15.06402278","INCLINATION":"53.0547","MEAN_ELEMENT_THEORY":"SGP4"},{"FILE":"3614916","MEAN_ANOMALY":"308.4019","RA_OF_ASC_NODE":"283.4822","SEMIMAJOR_AXIS":"6925.327","EPHEMERIS_TYPE":"0","APOAPSIS":"548.474","PERIOD":"95.592","ECCENTRICITY":"0.00018510","CLASSIFICATION_TYPE":"U","EPOCH":"2022-10-15T12:20:25.514880","ARG_OF_PERICENTER":"51.7136","MEAN_MOTION_DOT":"0.00002653","SITE":"AFETR","GP_ID":"215204711","MEAN_MOTION":"15.06406918","MEAN_ELEMENT_THEORY":"SGP4","INCLINATION":"53.0551","ELEMENT_SET_NO":"999","OBJECT_ID":"2021-044AS","BSTAR":"0.00019692000000","MEAN_MOTION_DDOT":"0.0000000000000","NORAD_CAT_ID":"48678","COUNTRY_CODE":"US","TIME_SYSTEM":"UTC","PERIAPSIS":"545.910","TLE_LINE1":"1 48678U 21044AS  22288.51418420  .00002653  00000-0  19692-3 0  9997","OBJECT_NAME":"STARLINK-2615","REF_FRAME":"TEME","TLE_LINE2":"2 48678  53.0551 283.4822 0001851  51.7136 308.4019 15.06406918 76773","REV_AT_EPOCH":"7677","DECAY_DATE":null,"RCS_SIZE":"LARGE","CENTER_NAME":"EARTH","LAUNCH_DATE":"2021-05-26","OBJECT_TYPE":"PAYLOAD"},{"EPOCH":"2022-10-15T17:01:44.134176","MEAN_MOTION_DOT":"0.00002018","ARG_OF_PERICENTER":"61.5907","SITE":"AFETR","FILE":"3615679","RA_OF_ASC_NODE":"282.6083","MEAN_ANOMALY":"298.5248","EPHEMERIS_TYPE":"0","SEMIMAJOR_AXIS":"6925.339","APOAPSIS":"548.343","PERIOD":"95.592","CLASSIFICATION_TYPE":"U","ECCENTRICITY":"0.00016450","COUNTRY_CODE":"US","TIME_SYSTEM":"UTC","PERIAPSIS":"546.065","TLE_LINE1":"1 48679U 21044AT  22288.70953859  .00002018  00000-0  15434-3 0  9994","OBJECT_NAME":"STARLINK-2648","REV_AT_EPOCH":"7680","DECAY_DATE":null,"TLE_LINE2":"2 48679  53.0539 282.6083 0001645  61.5907 298.5248 15.06403190 76802","REF_FRAME":"TEME","RCS_SIZE":"LARGE","CENTER_NAME":"EARTH","LAUNCH_DATE":"2021-05-26","OBJECT_TYPE":"PAYLOAD","MEAN_MOTION":"15.06403190","GP_ID":"215246394","MEAN_ELEMENT_THEORY":"SGP4","INCLINATION":"53.0539","ELEMENT_SET_NO":"999","OBJECT_ID":"2021-044AT","NORAD_CAT_ID":"48679","MEAN_MOTION_DDOT":"0.0000000000000","BSTAR":"0.00015434000000"},{"PERIOD":"95.592","ECCENTRICITY":"0.00018150","CLASSIFICATION_TYPE":"U","APOAPSIS":"548.466","EPHEMERIS_TYPE":"0","SEMIMAJOR_AXIS":"6925.344","RA_OF_ASC_NODE":"282.6238","MEAN_ANOMALY":"311.3239","FILE":"3615679","SITE":"AFETR","MEAN_MOTION_DOT":"0.00000695","ARG_OF_PERICENTER":"48.7906","EPOCH":"2022-10-15T16:56:26.115648","NORAD_CAT_ID":"48680","BSTAR":"0.00006553000000","MEAN_MOTION_DDOT":"0.0000000000000","OBJECT_ID":"2021-044AU","ELEMENT_SET_NO":"999","INCLINATION":"53.0536","MEAN_ELEMENT_THEORY":"SGP4","MEAN_MOTION":"15.06401627","GP_ID":"215246644","OBJECT_TYPE":"PAYLOAD","LAUNCH_DATE":"2021-05-26","CENTER_NAME":"EARTH","RCS_SIZE":"LARGE","REV_AT_EPOCH":"7680","DECAY_DATE":null,"REF_FRAME":"TEME","TLE_LINE2":"2 48680  53.0536 282.6238 0001815  48.7906 311.3239 15.06401627 76805","OBJECT_NAME":"STARLINK-2649","TLE_LINE1":"1 48680U 21044AU  22288.70585782  .00000695  00000-0  65530-4 0  9994","TIME_SYSTEM":"UTC","PERIAPSIS":"545.952","COUNTRY_CODE":"US"}];
